OBJECT_NAME,OBJECT_ID,EPOCH,MEAN_MOTION,ECCENTRICITY,INCLINATION,RA_OF_ASC_NODE,ARG_OF_PERICENTER,MEAN_ANOMALY,EPHEMERIS_TYPE,CLASSIFICATION_TYPE,NORAD_CAT_ID,ELEMENT_SET_NO,REV_AT_EPOCH,BSTAR,MEAN_MOTION_DOT,MEAN_MOTION_DDOT
CUTE-1 (CO-55),2003-031E,2026-07-16T12:59:16.292256,14.24352049,.0010852,98.6744,205.7314,99.2116,261.0291,0,U,27844,999,19585,.75515E-4,.131E-5,0
CUBESAT XI-IV (CO-57),2003-031J,2026-07-16T11:22:41.501280,14.23634953,.0010587,98.6775,205.3542,115.9860,244.2410,0,U,27848,999,19554,.65297E-4,.105E-5,0
CUBESAT XI-V,2005-043F,2026-07-16T16:28:52.831776,14.72704407,.0015305,98.3017,353.9342,110.8516,249.4332,0,U,28895,999,10609,.1069E-3,.63E-5,0
CUTE-1.7+APD II (CO-65),2008-021C,2026-07-16T21:04:18.316128,15.09710264,.0006903,97.8297,179.9231,292.7093,67.3405,0,U,32785,999,98967,.1558E-3,.2444E-4,0
CANX-2,2008-021H,2026-07-16T11:05:05.249184,15.05810340,.0008616,97.8658,177.8156,313.1738,46.8768,0,U,32790,999,98921,.98258E-4,.136E-4,0
SEEDS II (CO-66),2008-021J,2026-07-16T12:05:34.598688,15.33693982,.0003211,97.7523,196.8243,153.5241,206.6165,0,U,32791,999,99178,.32533E-3,.10519E-3,0
SWISSCUBE,2009-051B,2026-07-16T04:15:03.260448,14.62531689,.00078879,98.4006,105.5678,116.4429,243.7582,0,U,35932,999,89339,.97132642E-4,.443E-5,0
BEESAT-1,2009-051C,2026-07-16T16:20:27.869568,14.61763234,.0006186,98.3932,105.6536,125.9975,234.1800,0,U,35933,999,89349,.86615E-4,.383E-5,0
ITUPSAT1,2009-051E,2026-07-16T16:44:35.433312,14.60479971,.000818,98.4015,104.8308,138.8915,221.2902,0,U,35935,999,89304,.80333E-4,.341E-5,0
TISAT 1,2010-035E,2026-07-16T08:57:55.715328,15.32758593,.000458,98.0716,146.5388,117.8384,242.3321,0,U,36799,999,87217,.33782E-3,.10605E-3,0
STRAND-1,2013-009E,2026-07-16T10:28:10.914816,14.37179260,.0009469,98.3935,16.9527,137.7246,222.4672,0,U,39090,999,70126,.51462E-4,.11E-5,0
BRITE-AUSTRIA,2013-009F,2026-07-16T17:46:11.830080,14.36552858,.0010847,98.4009,16.4468,146.3030,213.8848,0,U,39091,999,70129,.36704E-4,.65E-6,0
NEE-01 PEGASO,2013-018B,2026-07-16T08:06:58.694976,14.93791702,.0013667,98.1258,342.4598,71.0065,289.2633,0,U,39151,999,71505,.12445E-3,.126E-4,0
POPACS 2,2013-055E,2026-07-15T18:06:23.348160,14.92031396,.04149304,80.9916,111.4814,102.0893,262.7124,0,U,39269,999,66747,.2370344E-3,.1454E-3,-.920463E-6
POPACS 3,2013-055F,2026-07-15T10:09:59.798592,14.56665007,.05487499,80.9990,198.5566,343.9708,14.4695,0,U,39270,999,64266,.19704028E-3,.8298E-4,0
ZACUBE-1 (TSHEPISOSAT),2013-066B,2026-07-16T20:49:14.221344,15.01333247,.0044085,97.8006,160.3502,149.8632,210.5142,0,U,39417,999,68518,.10164E-3,.1271E-4,0
WNISAT-1,2013-066H,2026-07-16T15:37:50.064096,14.58121814,.0163959,97.7237,344.7215,138.7515,222.6209,0,U,39423,999,67102,.11161E-3,.571E-5,0
TRITON-1,2013-066M,2026-07-16T19:20:39.541344,14.81799833,.0090715,97.8227,106.9367,136.9174,223.9186,0,U,39427,999,67847,.13949E-3,.1126E-4,0
GOMX-1,2013-066Q,2026-07-16T19:19:42.250368,14.69544995,.0128111,97.6462,36.3989,343.0273,16.6667,0,U,39430,999,67426,.10639E-3,.663E-5,0
CUBEBUG-2 (LO-74),2013-066AA,2026-07-16T19:15:47.811744,14.93973680,.0055539,97.8917,146.9130,289.9004,69.6236,0,U,39440,999,68141,.20214E-3,.2156E-4,0
NEE-02 KRYSAOR,2013-066AB,2026-07-16T08:26:59.616096,14.86741614,.0065307,97.8898,136.3620,335.4659,24.3453,0,U,39441,999,68053,.12224E-3,.1071E-4,0
FUNCUBE-1 (AO-73),2013-066AE,2026-07-16T11:39:15.439968,15.09827473,.0037986,97.8291,169.5530,103.5264,257.0201,0,U,39444,999,68408,.24422E-3,.3947E-4,0
UWE-3,2013-066AG,2026-07-16T19:46:31.675008,14.97205791,.0047571,97.8716,154.1042,218.9248,140.8545,0,U,39446,999,68201,.1784E-3,.2047E-4,0
BRITE-CA1 (TORONTO),2014-033L,2026-07-16T19:07:57.386208,14.72724378,.007856,97.9774,326.1854,181.1277,178.9766,0,U,40020,999,64657,.84822E-4,.514E-5,0
DUCHIFAT-1,2014-033M,2026-07-16T03:00:49.893408,15.71200075,.00027704,98.0416,260.5020,239.6355,120.4633,0,U,40021,999,66028,.68520431E-3,.87055E-3,0
NANOSATC-BR1,2014-033Q,2026-07-16T15:56:19.322592,15.32357003,.000527,98.0704,232.6831,92.5850,267.5993,0,U,40024,999,65849,.31274E-3,.9688E-4,0
QB50P1,2014-033R,2026-07-16T14:32:28.363776,15.18678566,.0010431,98.0963,210.8240,120.5690,239.6573,0,U,40025,999,65749,.21031E-3,.4288E-4,0
QB50P2,2014-033Y,2026-07-16T19:33:21.610944,15.15519045,.0009278,98.0763,196.5493,79.3830,280.8446,0,U,40032,999,65715,.22169E-3,.4129E-4,0
PERSEUS-M2,2014-033AD,2026-07-16T20:04:20.377344,14.95593326,.0010971,97.9987,148.9851,193.5382,166.5546,0,U,40037,999,65521,.60171E-4,.607E-5,0
PERSEUS-M1,2014-033AF,2026-07-16T19:21:58.154976,14.95719308,.0011012,97.9654,142.4284,190.7598,169.3388,0,U,40039,999,65506,.90612E-4,.949E-5,0
